OBJECT_NAME,OBJECT_ID,EPOCH,MEAN_MOTION,ECCENTRICITY,INCLINATION,RA_OF_ASC_NODE,ARG_OF_PERICENTER,MEAN_ANOMALY,EPHEMERIS_TYPE,CLASSIFICATION_TYPE,NORAD_CAT_ID,ELEMENT_SET_NO,REV_AT_EPOCH,BSTAR,MEAN_MOTION_DOT,MEAN_MOTION_DDOT
ASTRA 1M,2008-057A,2026-07-06T20:43:43.369824,1.00272975,.0004885,0.3438,82.7252,36.9676,135.4644,0,U,33436,999,4593,0,.136E-5,0
EUTELSAT HOTBIRD 13C,2008-065A,2026-07-06T20:23:53.940768,1.00268745,.0003218,2.9974,78.9636,30.1638,71.3401,0,U,33459,999,4754,0,-.269E-5,0
EXPRESS-AM44,2009-007A,2026-07-06T20:35:09.554208,1.00271693,.0004101,3.5109,78.1612,20.2911,124.1588,0,U,33595,999,5248,0,-.76E-6,0
NSS-9,2009-008A,2026-07-06T19:47:49.899840,1.00273167,.0002114,1.3092,82.4746,18.3651,304.0039,0,U,33749,999,6371,0,.86E-6,0
TELSTAR 11N,2009-009A,2026-07-06T20:27:31.095072,1.00271032,.0002453,0.0220,73.8404,32.4578,87.8600,0,U,34111,999,4644,0,-.236E-5,0
WGS F2 (USA 204),2009-017A,2026-07-06T20:54:38.884032,1.00269453,.0000531,0.0194,29.6087,164.7385,101.6601,0,U,34713,999,4581,0,.83E-6,0
SES-7 (PROTOSTAR 2),2009-027A,2026-07-06T19:26:29.444928,1.00269764,.0000249,0.0338,67.9459,144.2571,112.4460,0,U,34941,999,6282,0,-.33E-5,0
MEASAT-3A,2009-032A,2026-07-06T19:41:13.035264,1.00271046,.0002954,0.0212,5.5850,94.0193,280.5023,0,U,35362,999,822,0,-.96E-6,0
GOES 14,2009-033A,2026-07-06T19:32:43.848096,1.00102826,.0002056,1.7372,82.8098,33.4760,231.9241,0,U,35491,999,678,0,-.333E-5,0
FM-5,2009-034A,2026-07-06T18:30:54.792000,1.00271114,.0001165,0.0414,265.3083,77.7507,133.2586,0,U,35493,999,4684,0,-.185E-5,0
TERRESTAR-1,2009-035A,2026-07-06T14:58:40.404000,1.00271111,.0002565,5.1918,48.7846,47.8200,301.6536,0,U,35496,999,6232,0,-.44E-6,0
ASIASAT 5,2009-042A,2026-07-06T21:06:45.223776,1.00268654,.0001672,0.0350,271.1395,176.2282,254.6684,0,U,35696,999,6190,0,-.292E-5,0
JCSAT-12 (JCSAT-RA),2009-044A,2026-07-05T21:59:06.141120,1.00270044,.0000978,0.0208,306.1730,247.1338,192.4057,0,U,35755,999,6179,0,-.314E-5,0
OPTUS D3,2009-044B,2026-07-06T15:07:42.676320,1.00269399,.0003155,0.8863,268.3295,204.7841,194.5606,0,U,35756,999,6176,0,-.131E-5,0
NIMIQ 5,2009-050A,2026-07-06T20:17:32.051904,1.00271241,.0002807,0.0176,344.4971,121.3584,50.6521,0,U,35873,999,6154,0,-.242E-5,0
AMAZONAS 2,2009-054A,2026-07-06T20:17:39.541056,1.00273177,.0003334,1.8632,82.8063,22.8836,51.5455,0,U,35942,999,6138,0,-.245E-5,0
COMSATBW-1,2009-054B,2026-07-06T20:56:16.229184,1.00273071,.0002924,0.0749,117.4668,354.0637,190.4179,0,U,35943,999,6150,0,.39E-6,0
NSS-12,2009-058A,2026-07-06T19:39:12.017376,1.00273023,.0004422,0.0543,278.9016,152.8876,204.8120,0,U,36032,999,6111,0,.86E-6,0
THOR 6,2009-058B,2026-07-06T15:29:59.901216,1.00271466,.0002132,0.0203,107.5418,24.4886,24.2431,0,U,36033,999,6120,0,.5E-7,0
INTELSAT 14 (IS-14),2009-064A,2026-07-06T20:25:23.799360,1.00271545,.0002428,0.0184,351.6032,118.0222,76.5631,0,U,36097,999,6080,0,-.258E-5,0
EUTELSAT 36B,2009-065A,2026-07-06T20:52:39.075744,1.00270857,.0005913,0.5374,81.2910,24.8165,182.3817,0,U,36101,999,6090,0,.127E-5,0
INTELSAT 15 (IS-15),2009-067A,2026-07-06T19:19:52.581216,1.00271460,.000226,0.0079,5.9994,104.4370,189.4677,0,U,36106,999,4142,0,-.17E-5,0
WGS F3 (USA 211),2009-068A,2026-07-06T16:35:52.855008,1.00272826,.0000662,0.3042,85.6857,67.2311,250.7452,0,U,36108,999,4678,0,.79E-6,0
DIRECTV 12,2009-075A,2026-07-06T15:00:55.188000,1.00268924,.0000114,0.0383,184.4237,314.8614,267.8203,0,U,36131,999,4674,0,-.88E-6,0
BEIDOU-2 G1,2010-001A,2026-07-06T21:18:21.612096,1.00269430,.0001744,4.3366,60.3405,305.4196,19.1519,0,U,36287,999,6036,0,-.268E-5,0
SDO,2010-005A,2026-07-06T07:11:47.262912,1.00269873,.00015973,34.6882,86.0538,54.6395,149.2448,0,U,36395,999,6025,0,-.73E-6,0
INTELSAT 16 (IS-16),2010-006A,2026-07-06T20:16:32.149056,1.00270016,.0002475,0.0169,315.0873,173.1047,24.5633,0,U,36397,999,5985,0,-.23E-5,0
EWS-G2 (GOES 15),2010-008A,2026-07-06T20:56:23.715744,1.00268238,.0005291,1.3283,82.5757,50.0675,169.7226,0,U,36411,999,5983,0,.36E-6,0
ECHOSTAR 14,2010-010A,2026-07-06T16:39:00.056160,1.00271450,.0001972,0.0542,260.6517,196.1920,318.6700,0,U,36499,999,4674,0,.15E-6,0
SES-1,2010-016A,2026-07-06T15:19:55.684416,1.00271087,.0002669,0.0357,290.4691,171.9924,311.1382,0,U,36516,999,5922,0,-.1E-5,0
ASTRA 3B,2010-021A,2026-07-06T20:34:27.206112,1.00273174,.0004259,1.5194,83.3163,18.3938,155.2199,0,U,36581,999,5906,0,.151E-5,0
COMSATBW-2,2010-021B,2026-07-06T18:59:25.251936,1.00271394,.0002471,0.0417,145.7669,334.6125,102.4479,0,U,36582,999,5915,0,.103E-5,0
