ASTRA 1M                
1 33436U 08057A   26187.86369641  .00000136  00000+0  00000+0 0  9994
2 33436   0.3438  82.7252 0004885  36.9676 135.4644  1.00272975 45938
EUTELSAT HOTBIRD 13C    
1 33459U 08065A   26187.84992987 -.00000269  00000+0  00000+0 0  9999
2 33459   2.9974  78.9636 0003218  30.1638  71.3401  1.00268745 47540
EXPRESS-AM44            
1 33595U 09007A   26187.85774947 -.00000076  00000+0  00000+0 0  9998
2 33595   3.5109  78.1612 0004101  20.2911 124.1588  1.00271693 52488
NSS-9                   
1 33749U 09008A   26187.82488310  .00000086  00000+0  00000+0 0  9993
2 33749   1.3092  82.4746 0002114  18.3651 304.0039  1.00273167 63719
TELSTAR 11N             
1 34111U 09009A   26187.85244323 -.00000236  00000+0  00000+0 0  9993
2 34111   0.0220  73.8404 0002453  32.4578  87.8600  1.00271032 46448
WGS F2 (USA 204)        
1 34713U 09017A   26187.87128338  .00000083  00000+0  00000+0 0  9998
2 34713   0.0194  29.6087 0000531 164.7385 101.6601  1.00269453 45812
SES-7 (PROTOSTAR 2)     
1 34941U 09027A   26187.81006302 -.00000330  00000+0  00000+0 0  9998
2 34941   0.0338  67.9459 0000249 144.2571 112.4460  1.00269764 62827
MEASAT-3A               
1 35362U 09032A   26187.82028976 -.00000096  00000+0  00000+0 0  9993
2 35362   0.0212   5.5850 0002954  94.0193 280.5023  1.00271046  8228
GOES 14                 
1 35491U 09033A   26187.81439639 -.00000333  00000+0  00000+0 0  9992
2 35491   1.7372  82.8098 0002056  33.4760 231.9241  1.00102826  6788
FM-5                    
1 35493U 09034A   26187.77146750 -.00000185  00000+0  00000+0 0  9994
2 35493   0.0414 265.3083 0001165  77.7507 133.2586  1.00271114 46845
TERRESTAR-1             
1 35496U 09035A   26187.62407875 -.00000044  00000+0  00000+0 0  9994
2 35496   5.1918  48.7846 0002565  47.8200 301.6536  1.00271111 62320
ASIASAT 5               
1 35696U 09042A   26187.87969009 -.00000292  00000+0  00000+0 0  9998
2 35696   0.0350 271.1395 0001672 176.2282 254.6684  1.00268654 61904
JCSAT-12 (JCSAT-RA)     
1 35755U 09044A   26186.91604330 -.00000314  00000+0  00000+0 0  9998
2 35755   0.0208 306.1730 0000978 247.1338 192.4057  1.00270044 61798
OPTUS D3                
1 35756U 09044B   26187.63035505 -.00000131  00000+0  00000+0 0  9998
2 35756   0.8863 268.3295 0003155 204.7841 194.5606  1.00269399 61768
NIMIQ 5                 
1 35873U 09050A   26187.84550986 -.00000242  00000+0  00000+0 0  9996
2 35873   0.0176 344.4971 0002807 121.3584  50.6521  1.00271241 61548
AMAZONAS 2              
1 35942U 09054A   26187.84559654 -.00000245  00000+0  00000+0 0  9991
2 35942   1.8632  82.8063 0003334  22.8836  51.5455  1.00273177 61385
COMSATBW-1              
1 35943U 09054B   26187.87241006  .00000039  00000+0  00000+0 0  9994
2 35943   0.0749 117.4668 0002924 354.0637 190.4179  1.00273071 61508
NSS-12                  
1 36032U 09058A   26187.81888909  .00000086  00000+0  00000+0 0  9993
2 36032   0.0543 278.9016 0004422 152.8876 204.8120  1.00273023 61114
THOR 6                  
1 36033U 09058B   26187.64583219  .00000005  00000+0  00000+0 0  9992
2 36033   0.0203 107.5418 0002132  24.4886  24.2431  1.00271466 61200
INTELSAT 14 (IS-14)     
1 36097U 09064A   26187.85096990 -.00000258  00000+0  00000+0 0  9998
2 36097   0.0184 351.6032 0002428 118.0222  76.5631  1.00271545 60809
EUTELSAT 36B            
1 36101U 09065A   26187.86989671  .00000127  00000+0  00000+0 0  9997
2 36101   0.5374  81.2910 0005913  24.8165 182.3817  1.00270857 60902
INTELSAT 15 (IS-15)     
1 36106U 09067A   26187.80546969 -.00000170  00000+0  00000+0 0  9996
2 36106   0.0079   5.9994 0002260 104.4370 189.4677  1.00271460 41423
WGS F3 (USA 211)        
1 36108U 09068A   26187.69158397  .00000079  00000+0  00000+0 0  9997
2 36108   0.3042  85.6857 0000662  67.2311 250.7452  1.00272826 46780
DIRECTV 12              
1 36131U 09075A   26187.62563875 -.00000088  00000+0  00000+0 0  9996
2 36131   0.0383 184.4237 0000114 314.8614 267.8203  1.00268924 46743
BEIDOU-2 G1             
1 36287U 10001A   26187.88775014 -.00000268  00000+0  00000+0 0  9997
2 36287   4.3366  60.3405 0001744 305.4196  19.1519  1.00269430 60368
SDO                     
1 36395U 10005A   26187.29985258 -.00000073  00000+0  00000+0 0  9993
2 36395  34.6882  86.0538 0001597  54.6395 149.2448  1.00269873 60254
INTELSAT 16 (IS-16)     
1 36397U 10006A   26187.84481654 -.00000230  00000+0  00000+0 0  9993
2 36397   0.0169 315.0873 0002475 173.1047  24.5633  1.00270016 59851
EWS-G2 (GOES 15)        
1 36411U 10008A   26187.87249671  .00000036  00000+0  00000+0 0  9999
2 36411   1.3283  82.5757 0005291  50.0675 169.7226  1.00268238 59836
ECHOSTAR 14             
1 36499U 10010A   26187.69375065  .00000015  00000+0  00000+0 0  9992
2 36499   0.0542 260.6517 0001972 196.1920 318.6700  1.00271450 46744
SES-1                   
1 36516U 10016A   26187.63883894 -.00000100  00000+0  00000+0 0  9992
2 36516   0.0357 290.4691 0002669 171.9924 311.1382  1.00271087 59228
ASTRA 3B                
1 36581U 10021A   26187.85725933  .00000151  00000+0  00000+0 0  9998
2 36581   1.5194  83.3163 0004259  18.3938 155.2199  1.00273174 59068
COMSATBW-2              
1 36582U 10021B   26187.79126449  .00000103  00000+0  00000+0 0  9996
2 36582   0.0417 145.7669 0002471 334.6125 102.4479  1.00271394 59158
